ORBCOMM FM05            
1 25117U 97084F   25092.48525210  .00003684  00000+0  10731-2 0  9993
2 25117  45.0158  11.4489 0001116 227.1632 132.9126 14.45588714429657
ORBCOMM FM06            
1 25118U 97084G   25092.23813174  .00003440  00000+0  10017-2 0  9993
2 25118  45.0153  12.4562 0000683 292.8024 225.3375 14.45732302430534
ORBCOMM FM07            
1 25119U 97084H   25092.77337729  .00003349  00000+0  97681-3 0  9991
2 25119  45.0146  10.6513 0001725 202.7643 157.3133 14.45707852430604
ORBCOMM FM03            
1 25158U 98007B   25093.15529133  .00002601  00000+0  96100-3 0  9990
2 25158 107.9661 341.5014 0045287  18.0833 342.1906 14.34248760413428
ORBCOMM FM04            
1 25159U 98007C   25092.59480932  .00002174  00000+0  80856-3 0  9997
2 25159 107.9644 343.5198 0041077  16.2027 344.0417 14.34499352413381
ORBCOMM FM17            
1 25413U 98046A   25092.72354502  .00001863  00000+0  69868-3 0  9995
2 25413  44.9936 253.7109 0003516 189.1074 170.9709 14.34895798392335
ORBCOMM FM18            
1 25414U 98046B   25092.50846860  .00002456  00000+0  84605-3 0  9990
2 25414  44.9916 174.1257 0006611 254.1377 105.8743 14.38273808393356
ORBCOMM FM19            
1 25415U 98046C   25093.21444017  .00002969  00000+0  10168-2 0  9999
2 25415  44.9925 172.6577 0005459 251.1276 135.5155 14.38086599393614
