<?xml version="1.0" encoding="UTF-8"?>
<ndm xmlns:xsi="http://www.w3.org/2001/XMLSchema-instance" xsi:noNamespaceSchemaLocation="https://sanaregistry.org/r/ndmxml_unqualified/ndmxml-2.0.0-master-2.0.xsd">
<omm id="CCSDS_OMM_VERS" version="2.0">
<header><CREATION_DATE/><ORIGINATOR/></header><body><segment><metadata><OBJECT_NAME>ORBCOMM FM05</OBJECT_NAME><OBJECT_ID>1997-084F</OBJECT_ID><CENTER_NAME>EARTH</CENTER_NAME><REF_FRAME>TEME</REF_FRAME><TIME_SYSTEM>UTC</TIME_SYSTEM><MEAN_ELEMENT_THEORY>SGP4</MEAN_ELEMENT_THEORY></metadata><data><meanElements><EPOCH>2025-04-02T11:38:45.781440</EPOCH><MEAN_MOTION>14.45588714</MEAN_MOTION><ECCENTRICITY>.0001116</ECCENTRICITY><INCLINATION>45.0158</INCLINATION><RA_OF_ASC_NODE>11.4489</RA_OF_ASC_NODE><ARG_OF_PERICENTER>227.1632</ARG_OF_PERICENTER><MEAN_ANOMALY>132.9126</MEAN_ANOMALY></meanElements><tleParameters><EPHEMERIS_TYPE>0</EPHEMERIS_TYPE><CLASSIFICATION_TYPE>U</CLASSIFICATION_TYPE><NORAD_CAT_ID>25117</NORAD_CAT_ID><ELEMENT_SET_NO>999</ELEMENT_SET_NO><REV_AT_EPOCH>42965</REV_AT_EPOCH><BSTAR>.10731E-2</BSTAR><MEAN_MOTION_DOT>.3684E-4</MEAN_MOTION_DOT><MEAN_MOTION_DDOT>0</MEAN_MOTION_DDOT></tleParameters></data></segment></body></omm>
<omm id="CCSDS_OMM_VERS" version="2.0">
<header><CREATION_DATE/><ORIGINATOR/></header><body><segment><metadata><OBJECT_NAME>ORBCOMM FM06</OBJECT_NAME><OBJECT_ID>1997-084G</OBJECT_ID><CENTER_NAME>EARTH</CENTER_NAME><REF_FRAME>TEME</REF_FRAME><TIME_SYSTEM>UTC</TIME_SYSTEM><MEAN_ELEMENT_THEORY>SGP4</MEAN_ELEMENT_THEORY></metadata><data><meanElements><EPOCH>2025-04-02T05:42:54.582336</EPOCH><MEAN_MOTION>14.45732302</MEAN_MOTION><ECCENTRICITY>.0000683</ECCENTRICITY><INCLINATION>45.0153</INCLINATION><RA_OF_ASC_NODE>12.4562</RA_OF_ASC_NODE><ARG_OF_PERICENTER>292.8024</ARG_OF_PERICENTER><MEAN_ANOMALY>225.3375</MEAN_ANOMALY></meanElements><tleParameters><EPHEMERIS_TYPE>0</EPHEMERIS_TYPE><CLASSIFICATION_TYPE>U</CLASSIFICATION_TYPE><NORAD_CAT_ID>25118</NORAD_CAT_ID><ELEMENT_SET_NO>999</ELEMENT_SET_NO><REV_AT_EPOCH>43053</REV_AT_EPOCH><BSTAR>.10017E-2</BSTAR><MEAN_MOTION_DOT>.344E-4</MEAN_MOTION_DOT><MEAN_MOTION_DDOT>0</MEAN_MOTION_DDOT></tleParameters></data></segment></body></omm>
<omm id="CCSDS_OMM_VERS" version="2.0">
<header><CREATION_DATE/><ORIGINATOR/></header><body><segment><metadata><OBJECT_NAME>ORBCOMM FM07</OBJECT_NAME><OBJECT_ID>1997-084H</OBJECT_ID><CENTER_NAME>EARTH</CENTER_NAME><REF_FRAME>TEME</REF_FRAME><TIME_SYSTEM>UTC</TIME_SYSTEM><MEAN_ELEMENT_THEORY>SGP4</MEAN_ELEMENT_THEORY></metadata><data><meanElements><EPOCH>2025-04-02T18:33:39.797856</EPOCH><MEAN_MOTION>14.45707852</MEAN_MOTION><ECCENTRICITY>.0001725</ECCENTRICITY><INCLINATION>45.0146</INCLINATION><RA_OF_ASC_NODE>10.6513</RA_OF_ASC_NODE><ARG_OF_PERICENTER>202.7643</ARG_OF_PERICENTER><MEAN_ANOMALY>157.3133</MEAN_ANOMALY></meanElements><tleParameters><EPHEMERIS_TYPE>0</EPHEMERIS_TYPE><CLASSIFICATION_TYPE>U</CLASSIFICATION_TYPE><NORAD_CAT_ID>25119</NORAD_CAT_ID><ELEMENT_SET_NO>999</ELEMENT_SET_NO><REV_AT_EPOCH>43060</REV_AT_EPOCH><BSTAR>.97681E-3</BSTAR><MEAN_MOTION_DOT>.3349E-4</MEAN_MOTION_DOT><MEAN_MOTION_DDOT>0</MEAN_MOTION_DDOT></tleParameters></data></segment></body></omm>
<omm id="CCSDS_OMM_VERS" version="2.0">
<header><CREATION_DATE/><ORIGINATOR/></header><body><segment><metadata><OBJECT_NAME>ORBCOMM FM03</OBJECT_NAME><OBJECT_ID>1998-007B</OBJECT_ID><CENTER_NAME>EARTH</CENTER_NAME><REF_FRAME>TEME</REF_FRAME><TIME_SYSTEM>UTC</TIME_SYSTEM><MEAN_ELEMENT_THEORY>SGP4</MEAN_ELEMENT_THEORY></metadata><data><meanElements><EPOCH>2025-04-03T03:43:37.170912</EPOCH><MEAN_MOTION>14.34248760</MEAN_MOTION><ECCENTRICITY>.0045287</ECCENTRICITY><INCLINATION>107.9661</INCLINATION><RA_OF_ASC_NODE>341.5014</RA_OF_ASC_NODE><ARG_OF_PERICENTER>18.0833</ARG_OF_PERICENTER><MEAN_ANOMALY>342.1906</MEAN_ANOMALY></meanElements><tleParameters><EPHEMERIS_TYPE>0</EPHEMERIS_TYPE><CLASSIFICATION_TYPE>U</CLASSIFICATION_TYPE><NORAD_CAT_ID>25158</NORAD_CAT_ID><ELEMENT_SET_NO>999</ELEMENT_SET_NO><REV_AT_EPOCH>41342</REV_AT_EPOCH><BSTAR>.961E-3</BSTAR><MEAN_MOTION_DOT>.2601E-4</MEAN_MOTION_DOT><MEAN_MOTION_DDOT>0</MEAN_MOTION_DDOT></tleParameters></data></segment></body></omm>
<omm id="CCSDS_OMM_VERS" version="2.0">
<header><CREATION_DATE/><ORIGINATOR/></header><body><segment><metadata><OBJECT_NAME>ORBCOMM FM04</OBJECT_NAME><OBJECT_ID>1998-007C</OBJECT_ID><CENTER_NAME>EARTH</CENTER_NAME><REF_FRAME>TEME</REF_FRAME><TIME_SYSTEM>UTC</TIME_SYSTEM><MEAN_ELEMENT_THEORY>SGP4</MEAN_ELEMENT_THEORY></metadata><data><meanElements><EPOCH>2025-04-02T14:16:31.525248</EPOCH><MEAN_MOTION>14.34499352</MEAN_MOTION><ECCENTRICITY>.0041077</ECCENTRICITY><INCLINATION>107.9644</INCLINATION><RA_OF_ASC_NODE>343.5198</RA_OF_ASC_NODE><ARG_OF_PERICENTER>16.2027</ARG_OF_PERICENTER><MEAN_ANOMALY>344.0417</MEAN_ANOMALY></meanElements><tleParameters><EPHEMERIS_TYPE>0</EPHEMERIS_TYPE><CLASSIFICATION_TYPE>U</CLASSIFICATION_TYPE><NORAD_CAT_ID>25159</NORAD_CAT_ID><ELEMENT_SET_NO>999</ELEMENT_SET_NO><REV_AT_EPOCH>41338</REV_AT_EPOCH><BSTAR>.80856E-3</BSTAR><MEAN_MOTION_DOT>.2174E-4</MEAN_MOTION_DOT><MEAN_MOTION_DDOT>0</MEAN_MOTION_DDOT></tleParameters></data></segment></body></omm>
<omm id="CCSDS_OMM_VERS" version="2.0">
<header><CREATION_DATE/><ORIGINATOR/></header><body><segment><metadata><OBJECT_NAME>ORBCOMM FM17</OBJECT_NAME><OBJECT_ID>1998-046A</OBJECT_ID><CENTER_NAME>EARTH</CENTER_NAME><REF_FRAME>TEME</REF_FRAME><TIME_SYSTEM>UTC</TIME_SYSTEM><MEAN_ELEMENT_THEORY>SGP4</MEAN_ELEMENT_THEORY></metadata><data><meanElements><EPOCH>2025-04-02T17:21:54.289728</EPOCH><MEAN_MOTION>14.34895798</MEAN_MOTION><ECCENTRICITY>.0003516</ECCENTRICITY><INCLINATION>44.9936</INCLINATION><RA_OF_ASC_NODE>253.7109</RA_OF_ASC_NODE><ARG_OF_PERICENTER>189.1074</ARG_OF_PERICENTER><MEAN_ANOMALY>170.9709</MEAN_ANOMALY></meanElements><tleParameters><EPHEMERIS_TYPE>0</EPHEMERIS_TYPE><CLASSIFICATION_TYPE>U</CLASSIFICATION_TYPE><NORAD_CAT_ID>25413</NORAD_CAT_ID><ELEMENT_SET_NO>999</ELEMENT_SET_NO><REV_AT_EPOCH>39233</REV_AT_EPOCH><BSTAR>.69868E-3</BSTAR><MEAN_MOTION_DOT>.1863E-4</MEAN_MOTION_DOT><MEAN_MOTION_DDOT>0</MEAN_MOTION_DDOT></tleParameters></data></segment></body></omm>
<omm id="CCSDS_OMM_VERS" version="2.0">
<header><CREATION_DATE/><ORIGINATOR/></header><body><segment><metadata><OBJECT_NAME>ORBCOMM FM18</OBJECT_NAME><OBJECT_ID>1998-046B</OBJECT_ID><CENTER_NAME>EARTH</CENTER_NAME><REF_FRAME>TEME</REF_FRAME><TIME_SYSTEM>UTC</TIME_SYSTEM><MEAN_ELEMENT_THEORY>SGP4</MEAN_ELEMENT_THEORY></metadata><data><meanElements><EPOCH>2025-04-02T12:12:11.687040</EPOCH><MEAN_MOTION>14.38273808</MEAN_MOTION><ECCENTRICITY>.0006611</ECCENTRICITY><INCLINATION>44.9916</INCLINATION><RA_OF_ASC_NODE>174.1257</RA_OF_ASC_NODE><ARG_OF_PERICENTER>254.1377</ARG_OF_PERICENTER><MEAN_ANOMALY>105.8743</MEAN_ANOMALY></meanElements><tleParameters><EPHEMERIS_TYPE>0</EPHEMERIS_TYPE><CLASSIFICATION_TYPE>U</CLASSIFICATION_TYPE><NORAD_CAT_ID>25414</NORAD_CAT_ID><ELEMENT_SET_NO>999</ELEMENT_SET_NO><REV_AT_EPOCH>39335</REV_AT_EPOCH><BSTAR>.84605E-3</BSTAR><MEAN_MOTION_DOT>.2456E-4</MEAN_MOTION_DOT><MEAN_MOTION_DDOT>0</MEAN_MOTION_DDOT></tleParameters></data></segment></body></omm>
<omm id="CCSDS_OMM_VERS" version="2.0">
<header><CREATION_DATE/><ORIGINATOR/></header><body><segment><metadata><OBJECT_NAME>ORBCOMM FM19</OBJECT_NAME><OBJECT_ID>1998-046C</OBJECT_ID><CENTER_NAME>EARTH</CENTER_NAME><REF_FRAME>TEME</REF_FRAME><TIME_SYSTEM>UTC</TIME_SYSTEM><MEAN_ELEMENT_THEORY>SGP4</MEAN_ELEMENT_THEORY></metadata><data><meanElements><EPOCH>2025-04-03T05:08:47.630688</EPOCH><MEAN_MOTION>14.38086599</MEAN_MOTION><ECCENTRICITY>.0005459</ECCENTRICITY><INCLINATION>44.9925</INCLINATION><RA_OF_ASC_NODE>172.6577</RA_OF_ASC_NODE><ARG_OF_PERICENTER>251.1276</ARG_OF_PERICENTER><MEAN_ANOMALY>135.5155</MEAN_ANOMALY></meanElements><tleParameters><EPHEMERIS_TYPE>0</EPHEMERIS_TYPE><CLASSIFICATION_TYPE>U</CLASSIFICATION_TYPE><NORAD_CAT_ID>25415</NORAD_CAT_ID><ELEMENT_SET_NO>999</ELEMENT_SET_NO><REV_AT_EPOCH>39361</REV_AT_EPOCH><BSTAR>.10168E-2</BSTAR><MEAN_MOTION_DOT>.2969E-4</MEAN_MOTION_DOT><MEAN_MOTION_DDOT>0</MEAN_MOTION_DDOT></tleParameters></data></segment></body></omm>

</ndm>
